<?xml version="1.0" encoding="UTF-8"?>
<gpx version="1.1" creator="EPIC Rides Ecuador - https://epicrides.ec" xmlns="http://www.topografix.com/GPX/1/1">
  <metadata>
    <name>Sigchos – Quilotoa (EPIC Rides Ecuador)</name>
    <desc>Ruta de 78 km con +1.850 m de desnivel positivo. Desde el valle de Sigchos hasta la laguna del Quilotoa en los Andes de Ecuador.</desc>
    <author>
      <name>EPIC Rides Ecuador</name>
      <email>hola@epicrides.ec</email>
    </author>
    <time>2026-07-11T07:00:00Z</time>
  </metadata>
  <trk>
    <name>Sigchos – Quilotoa 78km</name>
    <type>Cycling</type>
    <trkseg>
      <trkpt lat="-0.7012" lon="-78.8912"><ele>2850</ele><time>2026-07-11T07:00:00Z</time></trkpt>
      <trkpt lat="-0.7150" lon="-78.8950"><ele>2920</ele><time>2026-07-11T07:30:00Z</time></trkpt>
      <trkpt lat="-0.7420" lon="-78.9050"><ele>3100</ele><time>2026-07-11T08:15:00Z</time></trkpt>
      <trkpt lat="-0.7890" lon="-78.9110"><ele>3450</ele><time>2026-07-11T09:30:00Z</time></trkpt>
      <trkpt lat="-0.8500" lon="-78.9050"><ele>3850</ele><time>2026-07-11T11:00:00Z</time></trkpt>
      <trkpt lat="-0.8625" lon="-78.8972"><ele>3914</ele><time>2026-07-11T12:00:00Z</time></trkpt>
    </trkseg>
  </trk>
</gpx>
